[{"OBJECT_NAME":"STARLINK-5930","OBJECT_ID":"2023-037Q","EPOCH":"2026-03-09T23:23:47.515200","MEAN_MOTION":14.98311549,"ECCENTRICITY":0.00030976,"INCLINATION":69.9994,"RA_OF_ASC_NODE":303.587,"ARG_OF_PERICENTER":265.0887,"MEAN_ANOMALY":94.9918,"EPHEMERIS_TYPE":0,"CLASSIFICATION_TYPE":"U","NORAD_CAT_ID":55928,"ELEMENT_SET_NO":999,"REV_AT_EPOCH":16353,"BSTAR":0.00013686691,"MEAN_MOTION_DOT":1.54e-5,"MEAN_MOTION_DDOT":0},{"OBJECT_NAME":"TIANPING 3B-02","OBJECT_ID":"2024-189C","EPOCH":"2026-03-09T23:37:53.455008","MEAN_MOTION":15.00973029,"ECCENTRICITY":0.00020237,"INCLINATION":97.5355,"RA_OF_ASC_NODE":92.3046,"ARG_OF_PERICENTER":72.7812,"MEAN_ANOMALY":287.3634,"EPHEMERIS_TYPE":0,"CLASSIFICATION_TYPE":"U","NORAD_CAT_ID":61616,"ELEMENT_SET_NO":999,"REV_AT_EPOCH":7556,"BSTAR":0.00030065789,"MEAN_MOTION_DOT":3.778e-5,"MEAN_MOTION_DDOT":0}]
